[{"OBJECT_NAME":"ONEWEB-0436","OBJECT_ID":"2022-012M","EPOCH":"2026-06-14T06:01:00.776352","MEAN_MOTION":13.17649083,"ECCENTRICITY":0.0001638,"INCLINATION":87.9143,"RA_OF_ASC_NODE":6.4295,"ARG_OF_PERICENTER":88.9515,"MEAN_ANOMALY":271.1804,"EPHEMERIS_TYPE":0,"CLASSIFICATION_TYPE":"U","NORAD_CAT_ID":51633,"ELEMENT_SET_NO":999,"REV_AT_EPOCH":21329,"BSTAR":0.00011835,"MEAN_MOTION_DOT":5.9e-07,"MEAN_MOTION_DDOT":0.0},{"OBJECT_NAME":"ONEWEB-0438","OBJECT_ID":"2022-012N","EPOCH":"2026-06-14T04:49:30.148896","MEAN_MOTION":13.10370674,"ECCENTRICITY":0.0001983,"INCLINATION":87.8832,"RA_OF_ASC_NODE":36.8756,"ARG_OF_PERICENTER":80.7136,"MEAN_ANOMALY":279.4216,"EPHEMERIS_TYPE":0,"CLASSIFICATION_TYPE":"U","NORAD_CAT_ID":51634,"ELEMENT_SET_NO":999,"REV_AT_EPOCH":20895,"BSTAR":-0.0012645,"MEAN_MOTION_DOT":-4.29e-06,"MEAN_MOTION_DDOT":0.0},{"OBJECT_NAME":"ONEWEB-0439","OBJECT_ID":"2022-012P","EPOCH":"2026-06-14T03:04:20.688672","MEAN_MOTION":13.1037316,"ECCENTRICITY":0.0001791,"INCLINATION":87.8831,"RA_OF_ASC_NODE":36.8776,"ARG_OF_PERICENTER":79.2043,"MEAN_ANOMALY":280.9286,"EPHEMERIS_TYPE":0,"CLASSIFICATION_TYPE":"U","NORAD_CAT_ID":51635,"ELEMENT_SET_NO":999,"REV_AT_EPOCH":20892,"BSTAR":-0.0015585,"MEAN_MOTION_DOT":-5.31e-06,"MEAN_MOTION_DDOT":0.0},{"OBJECT_NAME":"ONEWEB-0442","OBJECT_ID":"2022-012Q","EPOCH":"2026-06-14T02:11:23.471232","MEAN_MOTION":13.17648899,"ECCENTRICITY":0.0002407,"INCLINATION":87.9138,"RA_OF_ASC_NODE":6.4943,"ARG_OF_PERICENTER":83.5363,"MEAN_ANOMALY":276.6043,"EPHEMERIS_TYPE":0,"CLASSIFICATION_TYPE":"U","NORAD_CAT_ID":51636,"ELEMENT_SET_NO":999,"REV_AT_EPOCH":21326,"BSTAR":5.4868e-05,"MEAN_MOTION_DOT":3.4e-07,"MEAN_MOTION_DDOT":0.0},{"OBJECT_NAME":"ONEWEB-0443","OBJECT_ID":"2022-012R","EPOCH":"2026-06-14T06:18:01.244160","MEAN_MOTION":13.17649649,"ECCENTRICITY":0.0001816,"INCLINATION":87.9135,"RA_OF_ASC_NODE":6.4611,"ARG_OF_PERICENTER":76.3005,"MEAN_ANOMALY":283.8329,"EPHEMERIS_TYPE":0,"CLASSIFICATION_TYPE":"U","NORAD_CAT_ID":51637,"ELEMENT_SET_NO":999,"REV_AT_EPOCH":21333,"BSTAR":4.4967e-07,"MEAN_MOTION_DOT":1.3e-07,"MEAN_MOTION_DDOT":0.0},{"OBJECT_NAME":"ONEWEB-0444","OBJECT_ID":"2022-012S","EPOCH":"2026-06-14T04:39:56.707776","MEAN_MOTION":13.10370494,"ECCENTRICITY":0.0001828,"INCLINATION":87.8829,"RA_OF_ASC_NODE":36.8632,"ARG_OF_PERICENTER":77.7508,"MEAN_ANOMALY":282.3824,"EPHEMERIS_TYPE":0,"CLASSIFICATION_TYPE":"U","NORAD_CAT_ID":51638,"ELEMENT_SET_NO":999,"REV_AT_EPOCH":20894,"BSTAR":-0.0007213100000000001,"MEAN_MOTION_DOT":-2.39e-06,"MEAN_MOTION_DDOT":0.0},{"OBJECT_NAME":"ONEWEB-0445","OBJECT_ID":"2022-012T","EPOCH":"2026-06-14T03:21:03.716640","MEAN_MOTION":13.10374452,"ECCENTRICITY":0.0001839,"INCLINATION":87.8845,"RA_OF_ASC_NODE":36.8626,"ARG_OF_PERICENTER":89.0501,"MEAN_ANOMALY":271.0838,"EPHEMERIS_TYPE":0,"CLASSIFICATION_TYPE":"U","NORAD_CAT_ID":51639,"ELEMENT_SET_NO":999,"REV_AT_EPOCH":20894,"BSTAR":-0.0016494,"MEAN_MOTION_DOT":-5.63e-06,"MEAN_MOTION_DDOT":0.0},{"OBJECT_NAME":"ONEWEB-0446","OBJECT_ID":"2022-012U","EPOCH":"2026-06-14T04:37:33.231072","MEAN_MOTION":13.10369235,"ECCENTRICITY":0.0001866,"INCLINATION":87.8832,"RA_OF_ASC_NODE":36.8805,"ARG_OF_PERICENTER":87.2924,"MEAN_ANOMALY":272.8417,"EPHEMERIS_TYPE":0,"CLASSIFICATION_TYPE":"U","NORAD_CAT_ID":51640,"ELEMENT_SET_NO":999,"REV_AT_EPOCH":20893,"BSTAR":-0.00031613,"MEAN_MOTION_DOT":-9.8e-07,"MEAN_MOTION_DDOT":0.0},{"OBJECT_NAME":"ONEWEB-0448","OBJECT_ID":"2022-012V","EPOCH":"2026-06-14T04:44:43.654272","MEAN_MOTION":13.10370732,"ECCENTRICITY":0.0001759,"INCLINATION":87.883,"RA_OF_ASC_NODE":36.876,"ARG_OF_PERICENTER":80.1617,"MEAN_ANOMALY":279.9709,"EPHEMERIS_TYPE":0,"CLASSIFICATION_TYPE":"U","NORAD_CAT_ID":51641,"ELEMENT_SET_NO":999,"REV_AT_EPOCH":20890,"BSTAR":-0.00092024,"MEAN_MOTION_DOT":-3.09e-06,"MEAN_MOTION_DDOT":0.0},{"OBJECT_NAME":"ONEWEB-0449","OBJECT_ID":"2022-012W","EPOCH":"2026-06-14T04:51:53.565984","MEAN_MOTION":13.10370823,"ECCENTRICITY":0.0002185,"INCLINATION":87.8836,"RA_OF_ASC_NODE":36.8604,"ARG_OF_PERICENTER":75.6136,"MEAN_ANOMALY":284.5234,"EPHEMERIS_TYPE":0,"CLASSIFICATION_TYPE":"U","NORAD_CAT_ID":51642,"ELEMENT_SET_NO":999,"REV_AT_EPOCH":20891,"BSTAR":-0.0015234,"MEAN_MOTION_DOT":-5.19e-06,"MEAN_MOTION_DDOT":0.0},{"OBJECT_NAME":"ONEWEB-0451","OBJECT_ID":"2022-012X","EPOCH":"2026-06-14T05:56:10.241664","MEAN_MOTION":13.17649215,"ECCENTRICITY":0.000201,"INCLINATION":87.9146,"RA_OF_ASC_NODE":6.4276,"ARG_OF_PERICENTER":82.896,"MEAN_ANOMALY":277.24,"EPHEMERIS_TYPE":0,"CLASSIFICATION_TYPE":"U","NORAD_CAT_ID":51643,"ELEMENT_SET_NO":999,"REV_AT_EPOCH":21327,"BSTAR":0.00010384000000000001,"MEAN_MOTION_DOT":5.3e-07,"MEAN_MOTION_DDOT":0.0},{"OBJECT_NAME":"ONEWEB-0452","OBJECT_ID":"2022-012Y","EPOCH":"2026-06-14T05:53:43.433376","MEAN_MOTION":13.17648826,"ECCENTRICITY":0.0001921,"INCLINATION":87.9137,"RA_OF_ASC_NODE":6.4651,"ARG_OF_PERICENTER":78.1388,"MEAN_ANOMALY":281.9959,"EPHEMERIS_TYPE":0,"CLASSIFICATION_TYPE":"U","NORAD_CAT_ID":51644,"ELEMENT_SET_NO":999,"REV_AT_EPOCH":21328,"BSTAR":2.6124999999999998e-05,"MEAN_MOTION_DOT":2.3e-07,"MEAN_MOTION_DDOT":0.0},{"OBJECT_NAME":"ONEWEB-0456","OBJECT_ID":"2022-012AA","EPOCH":"2026-06-14T03:16:15.318624","MEAN_MOTION":13.10372673,"ECCENTRICITY":0.0001651,"INCLINATION":87.8846,"RA_OF_ASC_NODE":36.8613,"ARG_OF_PERICENTER":80.7355,"MEAN_ANOMALY":279.3959,"EPHEMERIS_TYPE":0,"CLASSIFICATION_TYPE":"U","NORAD_CAT_ID":51646,"ELEMENT_SET_NO":999,"REV_AT_EPOCH":20894,"BSTAR":-0.0015281000000000001,"MEAN_MOTION_DOT":-5.21e-06,"MEAN_MOTION_DDOT":0.0},{"OBJECT_NAME":"ONEWEB-0457","OBJECT_ID":"2022-012AB","EPOCH":"2026-06-14T04:32:34.600704","MEAN_MOTION":13.10368944,"ECCENTRICITY":0.0002153,"INCLINATION":87.8831,"RA_OF_ASC_NODE":36.8687,"ARG_OF_PERICENTER":89.3362,"MEAN_ANOMALY":270.8012,"EPHEMERIS_TYPE":0,"CLASSIFICATION_TYPE":"U","NORAD_CAT_ID":51647,"ELEMENT_SET_NO":999,"REV_AT_EPOCH":20895,"BSTAR":0.00022052,"MEAN_MOTION_DOT":9e-07,"MEAN_MOTION_DDOT":0.0},{"OBJECT_NAME":"ONEWEB-0458","OBJECT_ID":"2022-012AC","EPOCH":"2026-06-14T03:13:53.235552","MEAN_MOTION":13.10372441,"ECCENTRICITY":0.0001892,"INCLINATION":87.8844,"RA_OF_ASC_NODE":36.8677,"ARG_OF_PERICENTER":76.0193,"MEAN_ANOMALY":284.1145,"EPHEMERIS_TYPE":0,"CLASSIFICATION_TYPE":"U","NORAD_CAT_ID":51648,"ELEMENT_SET_NO":999,"REV_AT_EPOCH":20890,"BSTAR":-0.0016877,"MEAN_MOTION_DOT":-5.76e-06,"MEAN_MOTION_DDOT":0.0},{"OBJECT_NAME":"ONEWEB-0461","OBJECT_ID":"2022-012AD","EPOCH":"2026-06-14T06:25:18.721056","MEAN_MOTION":13.17648675,"ECCENTRICITY":0.000195,"INCLINATION":87.9143,"RA_OF_ASC_NODE":6.4376,"ARG_OF_PERICENTER":89.6751,"MEAN_ANOMALY":270.4604,"EPHEMERIS_TYPE":0,"CLASSIFICATION_TYPE":"U","NORAD_CAT_ID":51649,"ELEMENT_SET_NO":999,"REV_AT_EPOCH":21350,"BSTAR":0.0001358,"MEAN_MOTION_DOT":6.6e-07,"MEAN_MOTION_DDOT":0.0}]